{"type":"FeatureCollection","properties":{"interval_m":500.0,"chainage_from":"north","zero_at":"Mansarovar Metro end (J1 / survey sheet TMC-06)","total_m":4625},"features":[{"type":"Feature","geometry":{"type":"Point","coordinates":[75.7475901,26.876727900000002]},"properties":{"ch":0,"km":0.0,"major":true,"bearing":173.3}},{"type":"Feature","geometry":{"type":"Point","coordinates":[75.74946982312304,26.872566762326596]},"properties":{"ch":500,"km":0.5,"major":false,"bearing":156.4}},{"type":"Feature","geometry":{"type":"Point","coordinates":[75.75147277559307,26.86842560099229]},"properties":{"ch":1000,"km":1.0,"major":true,"bearing":155.5}},{"type":"Feature","geometry":{"type":"Point","coordinates":[75.75353679918845,26.864308536330903]},"properties":{"ch":1500,"km":1.5,"major":false,"bearing":155.5}},{"type":"Feature","geometry":{"type":"Point","coordinates":[75.75554816778424,26.86017063627348]},"properties":{"ch":2000,"km":2.0,"major":true,"bearing":156.0}},{"type":"Feature","geometry":{"type":"Point","coordinates":[75.75841267931169,26.85652473042891]},"properties":{"ch":2500,"km":2.5,"major":false,"bearing":136.3}},{"type":"Feature","geometry":{"type":"Point","coordinates":[75.76154919264248,26.853074018203518]},"properties":{"ch":3000,"km":3.0,"major":true,"bearing":156.1}},{"type":"Feature","geometry":{"type":"Point","coordinates":[75.76350452034107,26.84891526595182]},"properties":{"ch":3500,"km":3.5,"major":false,"bearing":158.0}},{"type":"Feature","geometry":{"type":"Point","coordinates":[75.76536979564192,26.844722762568658]},"properties":{"ch":4000,"km":4.0,"major":true,"bearing":157.5}},{"type":"Feature","geometry":{"type":"Point","coordinates":[75.76730304075592,26.840555248273322]},"properties":{"ch":4500,"km":4.5,"major":false,"bearing":156.6}}]}