{"type":"FeatureCollection","features":[{"type":"Feature","geometry":{"type":"Point","coordinates":[75.759603,26.87319]},"properties":{"cluster":"C1","signal_heads":14,"easting":575449.78,"northing":2972616.08,"nearest_label":"BUS STOP","nearest_label_m":26.9}},{"type":"Feature","geometry":{"type":"Point","coordinates":[75.763051,26.867652]},"properties":{"cluster":"C2","signal_heads":13,"easting":575796.05,"northing":2972004.73,"nearest_label":"Taskar - India's 1st Healthcare Mall","nearest_label_m":17.5}},{"type":"Feature","geometry":{"type":"Point","coordinates":[75.767783,26.839559]},"properties":{"cluster":"C3","signal_heads":13,"easting":576284.88,"northing":2968895.87,"nearest_label":"Bhagat Singh Choraha","nearest_label_m":10.9}},{"type":"Feature","geometry":{"type":"Point","coordinates":[75.758587,26.856461]},"properties":{"cluster":"C4","signal_heads":11,"easting":575360.0,"northing":2970762.57,"nearest_label":"BT ROAD","nearest_label_m":27.6}},{"type":"Feature","geometry":{"type":"Point","coordinates":[75.773343,26.854498]},"properties":{"cluster":"C5","signal_heads":9,"easting":576827.3,"northing":2970553.9,"nearest_label":"yashi girls hostal","nearest_label_m":20.1}},{"type":"Feature","geometry":{"type":"Point","coordinates":[75.773042,26.864739]},"properties":{"cluster":"C6","signal_heads":9,"easting":576790.45,"northing":2971688.05,"nearest_label":"PUMP ROOM","nearest_label_m":27.1}},{"type":"Feature","geometry":{"type":"Point","coordinates":[75.76143,26.869229]},"properties":{"cluster":"C7","signal_heads":9,"easting":575633.97,"northing":2972178.42,"nearest_label":"BT ROAD","nearest_label_m":13.7}},{"type":"Feature","geometry":{"type":"Point","coordinates":[75.770289,26.840536]},"properties":{"cluster":"C8","signal_heads":9,"easting":576533.25,"northing":2969005.62,"nearest_label":"Bhagwan mahaveer circle SFS","nearest_label_m":9.6}},{"type":"Feature","geometry":{"type":"Point","coordinates":[75.74762,26.876693]},"properties":{"cluster":"C9","signal_heads":9,"easting":574257.27,"northing":2972996.96,"nearest_label":"Shri guru jambheswar tea shop","nearest_label_m":27.9}},{"type":"Feature","geometry":{"type":"Point","coordinates":[75.754229,26.863143]},"properties":{"cluster":"C10","signal_heads":9,"easting":574922.62,"northing":2971500.07,"nearest_label":"BT ROAD","nearest_label_m":18.4}},{"type":"Feature","geometry":{"type":"Point","coordinates":[75.768633,26.837519]},"properties":{"cluster":"C11","signal_heads":9,"easting":576370.69,"northing":2968670.48,"nearest_label":"CC ROAD","nearest_label_m":27.3}},{"type":"Feature","geometry":{"type":"Point","coordinates":[75.750973,26.869722]},"properties":{"cluster":"C12","signal_heads":8,"easting":574594.89,"northing":2972226.84,"nearest_label":"BT ROAD","nearest_label_m":18.3}},{"type":"Feature","geometry":{"type":"Point","coordinates":[75.764725,26.846093]},"properties":{"cluster":"C13","signal_heads":8,"easting":575976.72,"northing":2969617.75,"nearest_label":"BT ROAD","nearest_label_m":39.0}},{"type":"Feature","geometry":{"type":"Point","coordinates":[75.770423,26.833669]},"properties":{"cluster":"C14","signal_heads":8,"easting":576551.14,"northing":2968245.12,"nearest_label":"BT ROAD","nearest_label_m":22.3}},{"type":"Feature","geometry":{"type":"Point","coordinates":[75.774154,26.829774]},"properties":{"cluster":"C15","signal_heads":7,"easting":576924.59,"northing":2967815.96,"nearest_label":"BT ROAD","nearest_label_m":25.9}},{"type":"Feature","geometry":{"type":"Point","coordinates":[75.77026,26.86686]},"properties":{"cluster":"C16","signal_heads":6,"easting":576512.7,"northing":2971921.36,"nearest_label":"BT ROAD","nearest_label_m":44.9}},{"type":"Feature","geometry":{"type":"Point","coordinates":[75.765521,26.858876]},"properties":{"cluster":"C17","signal_heads":6,"easting":576047.27,"northing":2971034.17,"nearest_label":"Shipra Path","nearest_label_m":3.1}},{"type":"Feature","geometry":{"type":"Point","coordinates":[75.763579,26.860842]},"properties":{"cluster":"C18","signal_heads":6,"easting":575852.95,"northing":2971250.75,"nearest_label":"saras dairy","nearest_label_m":15.6}},{"type":"Feature","geometry":{"type":"Point","coordinates":[75.762811,26.850437]},"properties":{"cluster":"C19","signal_heads":6,"easting":575783.63,"northing":2970097.8,"nearest_label":"Kapil saras booth","nearest_label_m":36.2}},{"type":"Feature","geometry":{"type":"Point","coordinates":[75.771857,26.865976]},"properties":{"cluster":"C20","signal_heads":5,"easting":576671.88,"northing":2971824.39,"nearest_label":"TRAFFIC POLICE","nearest_label_m":19.6}},{"type":"Feature","geometry":{"type":"Point","coordinates":[75.769429,26.8478]},"properties":{"cluster":"C21","signal_heads":5,"easting":576442.89,"northing":2969809.72,"nearest_label":"Vijay Path CHORAHA","nearest_label_m":6.0}},{"type":"Feature","geometry":{"type":"Point","coordinates":[75.758347,26.864799]},"properties":{"cluster":"C22","signal_heads":5,"easting":575330.65,"northing":2971685.96,"nearest_label":"RAJAT /  PATH","nearest_label_m":2.1}},{"type":"Feature","geometry":{"type":"Point","coordinates":[75.77707,26.839815]},"properties":{"cluster":"C23","signal_heads":4,"easting":577207.54,"northing":2968929.89,"nearest_label":"B2 Bypass Road, near Mansarovar Industrial Area","nearest_label_m":9.9}},{"type":"Feature","geometry":{"type":"Point","coordinates":[75.77442,26.840156]},"properties":{"cluster":"C24","signal_heads":4,"easting":576944.0,"northing":2968966.01,"nearest_label":"PUMP ROOM","nearest_label_m":33.0}},{"type":"Feature","geometry":{"type":"Point","coordinates":[75.773994,26.849425]},"properties":{"cluster":"C25","signal_heads":4,"easting":576895.35,"northing":2969992.46,"nearest_label":"Super Chinese  / carner fast food","nearest_label_m":23.5}},{"type":"Feature","geometry":{"type":"Point","coordinates":[75.767456,26.852267]},"properties":{"cluster":"C26","signal_heads":4,"easting":576243.86,"northing":2970303.25,"nearest_label":"BT ROAD","nearest_label_m":25.6}},{"type":"Feature","geometry":{"type":"Point","coordinates":[75.757024,26.867553]},"properties":{"cluster":"C27","signal_heads":4,"easting":575197.36,"northing":2971990.17,"nearest_label":"saras dairy","nearest_label_m":13.9}},{"type":"Feature","geometry":{"type":"Point","coordinates":[75.755127,26.871403]},"properties":{"cluster":"C28","signal_heads":4,"easting":575006.42,"northing":2972415.47,"nearest_label":"SWARN PATH CIRCLE","nearest_label_m":8.5}},{"type":"Feature","geometry":{"type":"Point","coordinates":[75.772554,26.840346]},"properties":{"cluster":"C29","signal_heads":3,"easting":576758.41,"northing":2968985.98,"nearest_label":"BT ROAD","nearest_label_m":23.0}},{"type":"Feature","geometry":{"type":"Point","coordinates":[75.757584,26.878121]},"properties":{"cluster":"C30","signal_heads":2,"easting":575246.04,"northing":2973160.99,"nearest_label":"BT ROAD","nearest_label_m":29.2}},{"type":"Feature","geometry":{"type":"Point","coordinates":[75.748026,26.87921]},"properties":{"cluster":"C31","signal_heads":2,"easting":574295.93,"northing":2973276.05,"nearest_label":"BT ROAD","nearest_label_m":31.1}},{"type":"Feature","geometry":{"type":"Point","coordinates":[75.769386,26.835874]},"properties":{"cluster":"C32","signal_heads":2,"easting":576446.66,"northing":2968488.7,"nearest_label":"BT ROAD","nearest_label_m":28.4}},{"type":"Feature","geometry":{"type":"Point","coordinates":[75.772095,26.831851]},"properties":{"cluster":"C33","signal_heads":2,"easting":576718.53,"northing":2968044.72,"nearest_label":"BT ROAD","nearest_label_m":13.9}},{"type":"Feature","geometry":{"type":"Point","coordinates":[75.758648,26.876335]},"properties":{"cluster":"C34","signal_heads":1,"easting":575352.85,"northing":2972963.85,"nearest_label":"BT ROAD","nearest_label_m":15.1}},{"type":"Feature","geometry":{"type":"Point","coordinates":[75.776825,26.845615]},"properties":{"cluster":"C35","signal_heads":1,"easting":577179.27,"northing":2969572.21,"nearest_label":"BT ROAD","nearest_label_m":13.0}},{"type":"Feature","geometry":{"type":"Point","coordinates":[75.775829,26.847717]},"properties":{"cluster":"C36","signal_heads":1,"easting":577078.83,"northing":2969804.37,"nearest_label":"BT ROAD","nearest_label_m":8.4}},{"type":"Feature","geometry":{"type":"Point","coordinates":[75.749173,26.872388]},"properties":{"cluster":"C37","signal_heads":1,"easting":574414.34,"northing":2972521.07,"nearest_label":"BT ROAD","nearest_label_m":18.2}},{"type":"Feature","geometry":{"type":"Point","coordinates":[75.75301,26.86593]},"properties":{"cluster":"C38","signal_heads":1,"easting":574799.69,"northing":2971807.99,"nearest_label":"BT ROAD","nearest_label_m":3.5}},{"type":"Feature","geometry":{"type":"Point","coordinates":[75.755919,26.86009]},"properties":{"cluster":"C39","signal_heads":1,"easting":575092.52,"northing":2971162.94,"nearest_label":"BT ROAD","nearest_label_m":3.1}}]}