{
 "type": "FeatureCollection",
 "features": [
  {
   "type": "Feature",
   "geometry": {
    "type": "Point",
    "coordinates": [
     75.7508876,
     26.8696053
    ]
   },
   "properties": {
    "chainage_m": 845.1,
    "width_m": 23.8,
    "classification": "wide / junction mouth",
    "uturn_possible": true
   }
  },
  {
   "type": "Feature",
   "geometry": {
    "type": "Point",
    "coordinates": [
     75.7541865,
     26.8629643
    ]
   },
   "properties": {
    "chainage_m": 1647.8,
    "width_m": 28.9,
    "classification": "wide / junction mouth",
    "uturn_possible": true
   }
  },
  {
   "type": "Feature",
   "geometry": {
    "type": "Point",
    "coordinates": [
     75.758597,
     26.8563501
    ]
   },
   "properties": {
    "chainage_m": 2510.3,
    "width_m": 32.7,
    "classification": "wide / junction mouth",
    "uturn_possible": true
   }
  },
  {
   "type": "Feature",
   "geometry": {
    "type": "Point",
    "coordinates": [
     75.7586832,
     26.856273
    ]
   },
   "properties": {
    "chainage_m": 2533.6,
    "width_m": 10.3,
    "classification": "typical opening",
    "uturn_possible": true
   }
  },
  {
   "type": "Feature",
   "geometry": {
    "type": "Point",
    "coordinates": [
     75.7628741,
     26.8503427
    ]
   },
   "properties": {
    "chainage_m": 3316.6,
    "width_m": 26.8,
    "classification": "wide / junction mouth",
    "uturn_possible": true
   }
  },
  {
   "type": "Feature",
   "geometry": {
    "type": "Point",
    "coordinates": [
     75.7648059,
     26.8459682
    ]
   },
   "properties": {
    "chainage_m": 3842.3,
    "width_m": 17.7,
    "classification": "wide / junction mouth",
    "uturn_possible": true
   }
  }
 ]
}